OBJECT_NAME,OBJECT_ID,EPOCH,MEAN_MOTION,ECCENTRICITY,INCLINATION,RA_OF_ASC_NODE,ARG_OF_PERICENTER,MEAN_ANOMALY,EPHEMERIS_TYPE,CLASSIFICATION_TYPE,NORAD_CAT_ID,ELEMENT_SET_NO,REV_AT_EPOCH,BSTAR,MEAN_MOTION_DOT,MEAN_MOTION_DDOT
INTELSAT 902 (IS-902),2001-039A,2026-07-19T11:13:43.218048,1.00271071,.00041603,6.1951,71.3845,46.7622,297.4397,0,U,26900,999,9101,0,-.291E-5,0
INTELSAT 904 (IS-904),2002-007A,2026-07-19T09:36:20.104416,1.00270287,.00054385,6.9984,68.7946,27.8388,313.1487,0,U,27380,999,5208,0,-.234E-5,0
DIRECTV 5 (TEMPO 1),2002-023A,2026-07-19T09:25:38.579232,1.00271874,.00030628,4.9582,74.9074,37.4573,216.1179,0,U,27426,999,8844,0,-.64E-6,0
INTELSAT 905 (IS-905),2002-027A,2026-07-19T10:12:38.822112,1.00273130,.0003581,6.8325,69.4080,49.4988,194.2610,0,U,27438,999,5168,0,.86E-6,0
GALAXY 3C (G-3C),2002-030A,2026-07-19T12:43:34.529664,1.00271166,.00017105,3.8160,77.5600,31.2724,284.5356,0,U,27445,999,4681,0,-.159E-5,0
INTELSAT 906 (IS-906),2002-041A,2026-07-19T04:55:36.231744,1.00271861,.00035151,5.8801,72.5236,29.1295,333.4091,0,U,27513,999,8735,0,.5E-7,0
GALAXY 13 (HORIZONS-1),2003-044A,2026-07-19T12:10:38.812224,1.00273222,.00020967,1.4997,83.4436,37.8290,208.6763,0,U,27954,999,4689,0,.127E-5,0
INTELSAT 10-02,2004-022A,2026-07-19T13:10:09.482304,1.00270240,.00001195,0.0542,254.1335,297.3954,302.3375,0,U,28358,999,8088,0,-.16E-6,0
DIRECTV 8,2005-019A,2026-07-19T12:36:42.687648,1.00272403,.0003074,0.0198,61.8760,61.7076,243.8464,0,U,28659,999,7739,0,-.3E-7,0
GALAXY 28 (G-28),2005-022A,2026-07-19T11:20:12.596064,1.00271043,.00024614,3.3786,78.5317,35.0407,326.6407,0,U,28702,999,5230,0,-.206E-5,0
GALAXY 16 (G-16),2006-023A,2026-07-19T12:42:27.137664,1.00271619,.00026697,0.0248,142.1675,336.1844,270.5634,0,U,29236,999,7329,0,-.131E-5,0
DIRECTV 9S,2006-043A,2026-07-19T12:41:49.697952,1.00271628,.00050845,2.5024,80.5139,33.2794,272.7747,0,U,29494,999,5170,0,-.119E-5,0
GALAXY 17 (G-17),2007-016B,2026-07-19T12:46:19.266816,1.00271109,.00037328,3.0516,79.4937,37.5525,286.8242,0,U,31307,999,7012,0,-.212E-5,0
INTELSAT 11 (IS-11),2007-044B,2026-07-19T07:58:17.099904,0.99053077,.00043899,3.6473,78.2799,99.3465,223.5085,0,U,32253,999,6876,0,-.231E-5,0
HORIZONS-2,2007-063B,2026-07-19T12:49:33.956256,1.00272743,.00036221,2.6836,80.2304,18.6530,317.0242,0,U,32388,999,6813,0,-.259E-5,0
DIRECTV 11,2008-013A,2026-07-19T11:33:38.536992,1.00271223,.0000131,0.0090,230.2150,208.9092,292.3610,0,U,32729,999,4591,0,-.13E-5,0
GALAXY 18 (G-18),2008-024A,2026-07-19T12:35:35.295648,1.00272693,.00028452,0.0133,337.5578,141.5007,244.1311,0,U,32951,999,4617,0,.21E-6,0
GALAXY 19 (G-19),2008-045A,2026-07-19T12:42:57.089952,1.00271035,.00025479,0.0462,242.0397,246.5414,262.4675,0,U,33376,999,6522,0,-.143E-5,0
FM-5,2009-034A,2026-07-19T12:46:04.291104,1.00265019,.00012653,0.0425,247.6229,120.0260,35.0121,0,U,35493,999,4696,0,-.203E-5,0
INTELSAT 14 (IS-14),2009-064A,2026-07-19T11:15:05.585760,1.00272357,.00025288,0.0156,46.8348,74.6212,299.5656,0,U,36097,999,6092,0,-.278E-5,0
INTELSAT 15 (IS-15),2009-067A,2026-07-19T13:34:54.432192,1.00272473,.00022428,0.0097,58.7616,57.8320,109.6289,0,U,36106,999,4155,0,-.189E-5,0
DIRECTV 12,2009-075A,2026-07-19T12:41:19.745664,1.00271282,.00001371,0.0416,227.5237,340.1253,177.2695,0,U,36131,999,4687,0,-.108E-5,0
INTELSAT 16 (IS-16),2010-006A,2026-07-19T12:48:56.515680,1.00271633,.00024368,0.0210,65.7922,70.4736,277.0775,0,U,36397,999,5997,0,-.249E-5,0
XM-5,2010-053A,2026-07-19T10:53:38.592096,1.00272395,.00012671,0.0603,264.1907,319.0029,122.2610,0,U,37185,999,5780,0,-.28E-6,0
INTELSAT 17 (IS-17),2010-065B,2026-07-19T13:29:24.958752,1.00272641,.00025706,0.0089,93.5347,37.0769,75.0885,0,U,37238,999,5357,0,-.6E-7,0
INTELSAT 28 (IS-28),2011-016A,2026-07-19T09:36:12.616128,1.00271685,.0003863,1.8876,82.2336,41.7491,285.5498,0,U,37392,999,5360,0,-.23E-5,0
INTELSAT 18 (IS-18),2011-056A,2026-07-19T13:31:38.595360,1.00273029,.00019716,0.0388,233.4664,246.9496,199.8379,0,U,37834,999,5413,0,.49E-6,0
INTELSAT 22 (IS-22),2012-011A,2026-07-19T13:31:09.791328,1.00272059,.00018383,0.0214,63.3343,67.8501,81.0563,0,U,38098,999,751,0,-.63E-6,0
INTELSAT 19 (IS-19),2012-030A,2026-07-19T13:47:38.726592,1.00272192,.00029713,0.0142,59.7258,57.8301,192.7016,0,U,38356,999,5077,0,-.61E-6,0
INTELSAT 20 (IS-20),2012-043A,2026-07-19T13:30:09.886752,1.00271147,.00013604,0.0159,75.7521,107.5131,25.1243,0,U,38740,999,5107,0,-.28E-6,0
INTELSAT 21 (IS-21),2012-045A,2026-07-19T12:54:03.525120,1.00271804,.00017436,0.0493,245.7044,242.5849,304.5536,0,U,38749,999,5084,0,-.289E-5,0
