INTELSAT 902 (IS-902)   
1 26900U 01039A   26200.46786132 -.00000291  00000+0  00000+0 0  9998
2 26900   6.1951  71.3845 0004160  46.7622 297.4397  1.00271071 91018
INTELSAT 904 (IS-904)   
1 27380U 02007A   26200.40023269 -.00000234  00000+0  00000+0 0  9993
2 27380   6.9984  68.7946 0005438  27.8388 313.1487  1.00270287 52083
DIRECTV 5 (TEMPO 1)     
1 27426U 02023A   26200.39280763 -.00000064  00000+0  00000+0 0  9995
2 27426   4.9582  74.9074 0003062  37.4573 216.1179  1.00271874 88443
INTELSAT 905 (IS-905)   
1 27438U 02027A   26200.42544933  .00000086  00000+0  00000+0 0  9991
2 27438   6.8325  69.4080 0003581  49.4988 194.2610  1.00273130 51686
GALAXY 3C (G-3C)        
1 27445U 02030A   26200.53026076 -.00000159  00000+0  00000+0 0  9990
2 27445   3.8160  77.5600 0001710  31.2724 284.5356  1.00271166 46811
INTELSAT 906 (IS-906)   
1 27513U 02041A   26200.20528046  .00000005  00000+0  00000+0 0  9995
2 27513   5.8801  72.5236 0003515  29.1295 333.4091  1.00271861 87351
GALAXY 13 (HORIZONS-1)  
1 27954U 03044A   26200.50739366  .00000127  00000+0  00000+0 0  9995
2 27954   1.4997  83.4436 0002096  37.8290 208.6763  1.00273222 46891
INTELSAT 10-02          
1 28358U 04022A   26200.54872086 -.00000016  00000+0  00000+0 0  9990
2 28358   0.0542 254.1335 0000119 297.3954 302.3375  1.00270240 80885
DIRECTV 8               
1 28659U 05019A   26200.52549407 -.00000003  00000+0  00000+0 0  9993
2 28659   0.0198  61.8760 0003074  61.7076 243.8464  1.00272403 77395
GALAXY 28 (G-28)        
1 28702U 05022A   26200.47236801 -.00000206  00000+0  00000+0 0  9996
2 28702   3.3786  78.5317 0002461  35.0407 326.6407  1.00271043 52307
GALAXY 16 (G-16)        
1 29236U 06023A   26200.52948076 -.00000131  00000+0  00000+0 0  9998
2 29236   0.0248 142.1675 0002669 336.1844 270.5634  1.00271619 73291
DIRECTV 9S              
1 29494U 06043A   26200.52904743 -.00000119  00000+0  00000+0 0  9995
2 29494   2.5024  80.5139 0005084  33.2794 272.7747  1.00271628 51700
GALAXY 17 (G-17)        
1 31307U 07016B   26200.53216744 -.00000212  00000+0  00000+0 0  9994
2 31307   3.0516  79.4937 0003732  37.5525 286.8242  1.00271109 70125
INTELSAT 11 (IS-11)     
1 32253U 07044B   26200.33214236 -.00000231  00000+0  00000+0 0  9999
2 32253   3.6473  78.2799 0004389  99.3465 223.5085  0.99053077 68764
HORIZONS-2              
1 32388U 07063B   26200.53442079 -.00000259  00000+0  00000+0 0  9999
2 32388   2.6836  80.2304 0003622  18.6530 317.0242  1.00272743 68137
DIRECTV 11              
1 32729U 08013A   26200.48169603 -.00000130  00000+0  00000+0 0  9995
2 32729   0.0090 230.2150 0000131 208.9092 292.3610  1.00271223 45912
GALAXY 18 (G-18)        
1 32951U 08024A   26200.52471407  .00000021  00000+0  00000+0 0  9995
2 32951   0.0133 337.5578 0002845 141.5007 244.1311  1.00272693 46178
GALAXY 19 (G-19)        
1 33376U 08045A   26200.52982743 -.00000143  00000+0  00000+0 0  9996
2 33376   0.0462 242.0397 0002547 246.5414 262.4675  1.00271035 65223
FM-5                    
1 35493U 09034A   26200.53199411 -.00000203  00000+0  00000+0 0  9997
2 35493   0.0425 247.6229 0001265 120.0260  35.0121  1.00265019 46965
INTELSAT 14 (IS-14)     
1 36097U 09064A   26200.46881465 -.00000278  00000+0  00000+0 0  9992
2 36097   0.0156  46.8348 0002528  74.6212 299.5656  1.00272357 60927
INTELSAT 15 (IS-15)     
1 36106U 09067A   26200.56590778 -.00000189  00000+0  00000+0 0  9992
2 36106   0.0097  58.7616 0002242  57.8320 109.6289  1.00272473 41558
DIRECTV 12              
1 36131U 09075A   26200.52870076 -.00000108  00000+0  00000+0 0  9998
2 36131   0.0416 227.5237 0000137 340.1253 177.2695  1.00271282 46879
INTELSAT 16 (IS-16)     
1 36397U 10006A   26200.53398745 -.00000249  00000+0  00000+0 0  9993
2 36397   0.0210  65.7922 0002436  70.4736 277.0775  1.00271633 59974
XM-5                    
1 37185U 10053A   26200.45391889 -.00000028  00000+0  00000+0 0  9999
2 37185   0.0603 264.1907 0001267 319.0029 122.2610  1.00272395 57807
INTELSAT 17 (IS-17)     
1 37238U 10065B   26200.56209443 -.00000006  00000+0  00000+0 0  9993
2 37238   0.0089  93.5347 0002570  37.0769  75.0885  1.00272641 53575
INTELSAT 28 (IS-28)     
1 37392U 11016A   26200.40014602 -.00000230  00000+0  00000+0 0  9994
2 37392   1.8876  82.2336 0003863  41.7491 285.5498  1.00271685 53601
INTELSAT 18 (IS-18)     
1 37834U 11056A   26200.56364115  .00000049  00000+0  00000+0 0  9990
2 37834   0.0388 233.4664 0001971 246.9496 199.8379  1.00273029 54135
INTELSAT 22 (IS-22)     
1 38098U 12011A   26200.56330777 -.00000063  00000+0  00000+0 0  9999
2 38098   0.0214  63.3343 0001838  67.8501  81.0563  1.00272059  7518
INTELSAT 19 (IS-19)     
1 38356U 12030A   26200.57475378 -.00000061  00000+0  00000+0 0  9993
2 38356   0.0142  59.7258 0002971  57.8301 192.7016  1.00272192 50772
INTELSAT 20 (IS-20)     
1 38740U 12043A   26200.56261443 -.00000028  00000+0  00000+0 0  9992
2 38740   0.0159  75.7521 0001360 107.5131  25.1243  1.00271147 51077
INTELSAT 21 (IS-21)     
1 38749U 12045A   26200.53754080 -.00000289  00000+0  00000+0 0  9993
2 38749   0.0493 245.7044 0001743 242.5849 304.5536  1.00271804 50840
